{
  "type": "FeatureCollection",
  "features": [
    {
      "type": "Feature",
      "properties": {
        "norad_id": 33791,
        "name": "COSMOS 2251 DEB",
        "group": "cosmos-2251-debris",
        "lat": 60.21095688399178,
        "lon": 169.08116198287541,
        "alt_km": 744.9460921272639,
        "timestamp": "2025-12-22T22:44:21.371680+00:00",
        "meta_object_name": "COSMOS 2251 DEB",
        "meta_object_id": "1993-036AG",
        "meta_epoch": "2025-12-22T12:58:13.143360",
        "meta_mean_motion": 14.43172996,
        "meta_eccentricity": 0.00301606,
        "meta_inclination": 74.1744,
        "meta_ra_of_asc_node": 19.5319,
        "meta_arg_of_pericenter": 214.8675,
        "meta_mean_anomaly": 307.1142,
        "meta_ephemeris_type": 0,
        "meta_classification_type": "U",
        "meta_norad_cat_id": 33791,
        "meta_element_set_no": 999,
        "meta_rev_at_epoch": 88193,
        "meta_bstar": 0.00080124848,
        "meta_mean_motion_dot": 2.683e-05,
        "meta_mean_motion_ddot": 0,
        "tle_line1": "1 33791U 93036AG  25356.54042990  .00002683  00000+0  80125-3 0  9995",
        "tle_line2": "2 33791  74.1744  19.5319 0030160 214.8675 307.1142 14.43172996881936"
      },
      "geometry": {
        "type": "Point",
        "coordinates": [
          169.08116198287541,
          60.21095688399178
        ]
      }
    },
    {
      "type": "Feature",
      "properties": {
        "norad_id": 33792,
        "name": "COSMOS 2251 DEB",
        "group": "cosmos-2251-debris",
        "lat": -13.050429639362468,
        "lon": 152.88131487359394,
        "alt_km": 1393.3381288752062,
        "timestamp": "2025-12-22T22:44:21.371690+00:00",
        "meta_object_name": "COSMOS 2251 DEB",
        "meta_object_id": "1993-036AH",
        "meta_epoch": "2025-12-22T08:03:36.993312",
        "meta_mean_motion": 13.4584037,
        "meta_eccentricity": 0.04276637,
        "meta_inclination": 73.9012,
        "meta_ra_of_asc_node": 330.0195,
        "meta_arg_of_pericenter": 32.9131,
        "meta_mean_anomaly": 76.7293,
        "meta_ephemeris_type": 0,
        "meta_classification_type": "U",
        "meta_norad_cat_id": 33792,
        "meta_element_set_no": 999,
        "meta_rev_at_epoch": 82571,
        "meta_bstar": 0.00099599881,
        "meta_mean_motion_dot": 1.013e-05,
        "meta_mean_motion_ddot": 0,
        "tle_line1": "1 33792U 93036AH  25356.33584483  .00001013  00000+0  99600-3 0  9995",
        "tle_line2": "2 33792  73.9012 330.0195 0427663  32.9131  76.7293 13.45840370825718"
      },
      "geometry": {
        "type": "Point",
        "coordinates": [
          152.88131487359394,
          -13.050429639362468
        ]
      }
    },
    {
      "type": "Feature",
      "properties": {
        "norad_id": 33793,
        "name": "COSMOS 2251 DEB",
        "group": "cosmos-2251-debris",
        "lat": 25.2376323264569,
        "lon": -56.417816678131594,
        "alt_km": 830.976215681867,
        "timestamp": "2025-12-22T22:44:21.371701+00:00",
        "meta_object_name": "COSMOS 2251 DEB",
        "meta_object_id": "1993-036AJ",
        "meta_epoch": "2025-12-22T12:15:08.768160",
        "meta_mean_motion": 14.27754603,
        "meta_eccentricity": 0.00788456,
        "meta_inclination": 73.9806,
        "meta_ra_of_asc_node": 132.1591,
        "meta_arg_of_pericenter": 280.3462,
        "meta_mean_anomaly": 148.9527,
        "meta_ephemeris_type": 0,
        "meta_classification_type": "U",
        "meta_norad_cat_id": 33793,
        "meta_element_set_no": 999,
        "meta_rev_at_epoch": 87346,
        "meta_bstar": 0.00065880221,
        "meta_mean_motion_dot": 1.655e-05,
        "meta_mean_motion_ddot": 0,
        "tle_line1": "1 33793U 93036AJ  25356.51051815  .00001655  00000+0  65880-3 0  9999",
        "tle_line2": "2 33793  73.9806 132.1591 0078845 280.3462 148.9527 14.27754603873462"
      },
      "geometry": {
        "type": "Point",
        "coordinates": [
          -56.417816678131594,
          25.2376323264569
        ]
      }
    },
    {
      "type": "Feature",
      "properties": {
        "norad_id": 33795,
        "name": "COSMOS 2251 DEB",
        "group": "cosmos-2251-debris",
        "lat": 72.08444587692692,
        "lon": 118.13789196647849,
        "alt_km": 529.182015174656,
        "timestamp": "2025-12-22T22:44:21.371711+00:00",
        "meta_object_name": "COSMOS 2251 DEB",
        "meta_object_id": "1993-036AL",
        "meta_epoch": "2025-12-22T13:18:52.443360",
        "meta_mean_motion": 15.05824898,
        "meta_eccentricity": 0.00303571,
        "meta_inclination": 74.0323,
        "meta_ra_of_asc_node": 56.6077,
        "meta_arg_of_pericenter": 136.546,
        "meta_mean_anomaly": 337.6477,
        "meta_ephemeris_type": 0,
        "meta_classification_type": "U",
        "meta_norad_cat_id": 33795,
        "meta_element_set_no": 999,
        "meta_rev_at_epoch": 90169,
        "meta_bstar": 0.0012136516,
        "meta_mean_motion_dot": 0.00017797,
        "meta_mean_motion_ddot": 0,
        "tle_line1": "1 33795U 93036AL  25356.55477365  .00017797  00000+0  12137-2 0  9997",
        "tle_line2": "2 33795  74.0323  56.6077 0030357 136.5460 337.6477 15.05824898901694"
      },
      "geometry": {
        "type": "Point",
        "coordinates": [
          118.13789196647849,
          72.08444587692692
        ]
      }
    },
    {
      "type": "Feature",
      "properties": {
        "norad_id": 33797,
        "name": "COSMOS 2251 DEB",
        "group": "cosmos-2251-debris",
        "lat": -51.346032294210985,
        "lon": -5.396755340889157,
        "alt_km": 745.1745922531381,
        "timestamp": "2025-12-22T22:44:21.371721+00:00",
        "meta_object_name": "COSMOS 2251 DEB",
        "meta_object_id": "1993-036AN",
        "meta_epoch": "2025-12-22T11:58:25.315968",
        "meta_mean_motion": 14.57880559,
        "meta_eccentricity": 0.00603835,
        "meta_inclination": 74.0464,
        "meta_ra_of_asc_node": 16.4112,
        "meta_arg_of_pericenter": 101.3166,
        "meta_mean_anomaly": 11.4661,
        "meta_ephemeris_type": 0,
        "meta_classification_type": "U",
        "meta_norad_cat_id": 33797,
        "meta_element_set_no": 999,
        "meta_rev_at_epoch": 89127,
        "meta_bstar": 0.00034277848,
        "meta_mean_motion_dot": 1.581e-05,
        "meta_mean_motion_ddot": 0,
        "tle_line1": "1 33797U 93036AN  25356.49890412  .00001581  00000+0  34278-3 0  9999",
        "tle_line2": "2 33797  74.0464  16.4112 0060383 101.3166  11.4661 14.57880559891277"
      },
      "geometry": {
        "type": "Point",
        "coordinates": [
          -5.396755340889157,
          -51.346032294210985
        ]
      }
    },
    {
      "type": "Feature",
      "properties": {
        "norad_id": 33798,
        "name": "COSMOS 2251 DEB",
        "group": "cosmos-2251-debris",
        "lat": 55.50540245350389,
        "lon": 141.5233432210079,
        "alt_km": 803.3036137596346,
        "timestamp": "2025-12-22T22:44:21.371731+00:00",
        "meta_object_name": "COSMOS 2251 DEB",
        "meta_object_id": "1993-036AP",
        "meta_epoch": "2025-12-22T11:08:50.394624",
        "meta_mean_motion": 14.44626394,
        "meta_eccentricity": 0.0092366,
        "meta_inclination": 74.0292,
        "meta_ra_of_asc_node": 117.7918,
        "meta_arg_of_pericenter": 237.0475,
        "meta_mean_anomaly": 191.1937,
        "meta_ephemeris_type": 0,
        "meta_classification_type": "U",
        "meta_norad_cat_id": 33798,
        "meta_element_set_no": 999,
        "meta_rev_at_epoch": 88734,
        "meta_bstar": 0.00017197454,
        "meta_mean_motion_dot": 5.98e-06,
        "meta_mean_motion_ddot": 0,
        "tle_line1": "1 33798U 93036AP  25356.46447216  .00000598  00000+0  17197-3 0  9995",
        "tle_line2": "2 33798  74.0292 117.7918 0092366 237.0475 191.1937 14.44626394887348"
      },
      "geometry": {
        "type": "Point",
        "coordinates": [
          141.5233432210079,
          55.50540245350389
        ]
      }
    },
    {
      "type": "Feature",
      "properties": {
        "norad_id": 33799,
        "name": "COSMOS 2251 DEB",
        "group": "cosmos-2251-debris",
        "lat": 28.804204863919658,
        "lon": -127.37234349811361,
        "alt_km": 613.7224930172761,
        "timestamp": "2025-12-22T22:44:21.371742+00:00",
        "meta_object_name": "COSMOS 2251 DEB",
        "meta_object_id": "1993-036AQ",
        "meta_epoch": "2025-12-22T10:46:25.690944",
        "meta_mean_motion": 14.79744929,
        "meta_eccentricity": 0.00224679,
        "meta_inclination": 74.0318,
        "meta_ra_of_asc_node": 62.6676,
        "meta_arg_of_pericenter": 129.9441,
        "meta_mean_anomaly": 245.0155,
        "meta_ephemeris_type": 0,
        "meta_classification_type": "U",
        "meta_norad_cat_id": 33799,
        "meta_element_set_no": 999,
        "meta_rev_at_epoch": 88955,
        "meta_bstar": 0.0013396152,
        "meta_mean_motion_dot": 0.00010098,
        "meta_mean_motion_ddot": 0,
        "tle_line1": "1 33799U 93036AQ  25356.44890846  .00010098  00000+0  13396-2 0  9997",
        "tle_line2": "2 33799  74.0318  62.6676 0022467 129.9441 245.0155 14.79744929889553"
      },
      "geometry": {
        "type": "Point",
        "coordinates": [
          -127.37234349811361,
          28.804204863919658
        ]
      }
    }
  ]
}